H1 CPF 01  gfz 2021 05 09 00  6291 tandemx   
H2 1003001  6202 36605    2021 05 09 00 59 42 2021 05 14 00 00 42   120 1 1  0 0 0
H9
10 0 59346   9342.000000  0   -2228390.013  -1463504.116   6340867.694
10 0 59346   9462.000000  0   -1721151.586   -746587.932   6617133.650
10 0 59346   9582.000000  0   -1171297.871    -25892.889   6777101.585
10 0 59346   9702.000000  0    -588476.804    685342.487   6817980.198
10 0 59346   9822.000000  0      16863.873   1374222.910   6739057.560
10 0 59346   9942.000000  0     633663.688   2028429.980   6541713.088
10 0 59346  10062.000000  0    1250451.293   2636442.552   6229394.393
10 0 59346  10182.000000  0    1855556.892   3187739.610   5807560.520
10 0 59346  10302.000000  0    2437332.512   3672984.884   5283592.841
10 0 59346  10422.000000  0    2984377.839   4084189.820   4666672.296
10 0 59346  10542.000000  0    3485766.185   4414849.702   3967622.525
10 0 59346  10662.000000  0    3931264.338   4660051.255   3198724.973
10 0 59346  10782.000000  0    4311547.608   4816552.284   2373505.519
10 0 59346  10902.000000  0    4618397.757   4882824.801   1506491.434
10 0 59346  11022.000000  0    4844880.547   4859064.939    612952.669
10 0 59346  11142.000000  0    4985502.884   4747168.376   -291375.297
10 0 59346  11262.000000  0    5036338.004   4550668.645  -1190578.592
10 0 59346  11382.000000  0    4995119.649   4274642.632  -2068852.655
10 0 59346  11502.000000  0    4861303.813   3925586.347  -2910786.856
10 0 59346  11622.000000  0    4636095.173   3511263.513  -3701639.824
10 0 59346  11742.000000  0    4322437.647   3040531.893  -4427599.324
10 0 59346  11862.000000  0    3924970.811   2523151.223  -5076021.394
10 0 59346  11982.000000  0    3449954.524   1969577.693  -5635644.614
10 0 59346  12102.000000  0    2905162.958   1390750.870  -6096777.071
10 0 59346  12222.000000  0    2299750.582    797877.375  -6451453.162
10 0 59346  12342.000000  0    1644094.584    202215.967  -6693558.812
10 0 59346  12462.000000  0     949617.626   -385132.035  -6818926.812
10 0 59346  12582.000000  0     228590.050   -953425.670  -6825401.888
10 0 59346  12702.000000  0    -506082.938  -1492475.620  -6712871.680
10 0 59346  12822.000000  0   -1241085.782  -1992821.415  -6483268.766
10 0 59346  12942.000000  0   -1962928.444  -2445894.410  -6140541.953
10 0 59346  13062.000000  0   -2658188.380  -2844162.871  -5690595.049
10 0 59346  13182.000000  0   -3313755.855  -3181257.419  -5141196.305
10 0 59346  13302.000000  0   -3917081.244  -3452076.399  -4501856.632
10 0 59346  13422.000000  0   -4456417.653  -3652866.870  -3783675.290
10 0 59346  13542.000000  0   -4921054.165  -3781279.937  -2999156.801
10 0 59346  13662.000000  0   -5301535.370  -3836399.269  -2161999.716
10 0 59346  13782.000000  0   -5589861.034  -3818740.966  -1286859.880
10 0 59346  13902.000000  0   -5779660.683  -3730224.299   -389092.987
10 0 59346  14022.000000  0   -5866338.643  -3574113.774    515519.159
10 0 59346  14142.000000  0   -5847185.603  -3354933.843   1411053.605
10 0 59346  14262.000000  0   -5721451.390  -3078356.829   2281736.832
10 0 59346  14382.000000  0   -5490377.116  -2751066.953   3112231.378
10 0 59346  14502.000000  0   -5157187.889  -2380606.150   3887913.384
10 0 59346  14622.000000  0   -4727044.721  -1975203.242   4595136.538
10 0 59346  14742.000000  0   -4206957.224  -1543591.790   5221473.518
10 0 59346  14862.000000  0   -3605662.193  -1094823.119   5755932.418
10 0 59346  14982.000000  0   -2933470.105   -638077.021   6189147.397
10 0 59346  15102.000000  0   -2202080.679   -182473.339   6513538.840
10 0 59346  15222.000000  0   -1424372.537    263109.737   6723438.806
10 0 59346  15342.000000  0    -614173.537    690206.604   6815183.566
10 0 59346  15462.000000  0     213985.661   1090923.895   6787173.504
10 0 59346  15582.000000  0    1045131.533   1458085.812   6639899.227
10 0 59346  15702.000000  0    1864117.742   1785362.990   6375933.385
10 0 59346  15822.000000  0    2655900.288   2067381.663   5999888.124
10 0 59346  15942.000000  0    3405814.453   2299812.597   5518340.274
10 0 59346  16062.000000  0    4099849.708   2479438.350   4939722.055
10 0 59346  16182.000000  0    4724915.123   2604197.884   4274179.187
10 0 59346  16302.000000  0    5269093.209   2673207.971   3533399.341
10 0 59346  16422.000000  0    5721877.833   2686759.119   2730407.505
10 0 59346  16542.000000  0    6074382.880   2646285.865   1879335.730
10 0 59346  16662.000000  0    6319525.191   2554314.463    995171.816
10 0 59346  16782.000000  0    6452172.688   2414386.392     93488.219
10 0 59346  16902.000000  0    6469252.757   2230960.331   -809841.575
10 0 59346  17022.000000  0    6369817.441   2009294.678  -1698931.109
10 0 59346  17142.000000  0    6155069.210   1755315.656  -2558166.408
10 0 59346  17262.000000  0    5828343.335   1475472.461  -3372487.768
10 0 59346  17382.000000  0    5395046.586   1176583.078  -4127657.128
10 0 59346  17502.000000  0    4862555.241    865675.913  -4810506.868
10 0 59346  17622.000000  0    4240076.656    549831.702  -5409164.038
10 0 59346  17742.000000  0    3538479.744    236028.833  -5913248.479
10 0 59346  17862.000000  0    2770096.949    -69004.397  -6314043.041
10 0 59346  17982.000000  0    1948501.689   -358928.208  -6604632.805
10 0 59346  18102.000000  0    1088268.237   -627917.918  -6780012.960
10 0 59346  18222.000000  0     204715.359   -870776.690  -6837167.159
10 0 59346  18342.000000  0    -686362.276  -1083032.001  -6775112.423
10 0 59346  18462.000000  0   -1568968.983  -1261015.441  -6594914.192
10 0 59346  18582.000000  0   -2427188.918  -1401924.798  -6299670.459
10 0 59346  18702.000000  0   -3245466.530  -1503867.287  -5894463.045
10 0 59346  18822.000000  0   -4008883.329  -1565883.991  -5386280.508
10 0 59346  18942.000000  0   -4703430.831  -1587955.081  -4783909.751
10 0 59346  19062.000000  0   -5316271.276  -1570984.864  -4097795.104
10 0 59346  19182.000000  0   -5835982.106  -1516767.157  -3339868.054
10 0 59346  19302.000000  0   -6252779.591  -1427931.417  -2523347.529
10 0 59346  19422.000000  0   -6558714.763  -1307869.933  -1662513.397
10 0 59346  19542.000000  0   -6747837.021  -1160647.883   -772457.353
10 0 59346  19662.000000  0   -6816321.006   -990897.903    131185.310
10 0 59346  19782.000000  0   -6762551.489   -803700.742   1032517.032
10 0 59346  19902.000000  0   -6587164.274   -604456.802   1915665.987
10 0 59346  20022.000000  0   -6293041.549   -398751.017   2765074.792
10 0 59346  20142.000000  0   -5885261.945   -192214.265   3565783.267
10 0 59346  20262.000000  0   -5371005.748      9615.026   4303698.965
10 0 59346  20382.000000  0   -4759418.463    201424.585   4965848.700
10 0 59346  20502.000000  0   -4061437.885    378255.053   5540606.163
10 0 59346  20622.000000  0   -3289589.465    535616.857   6017893.704
10 0 59346  20742.000000  0   -2457752.604    669593.696   6389354.885
10 0 59346  20862.000000  0   -1580904.612    776931.042   6648495.369
10 0 59346  20982.000000  0    -674846.041    855108.956   6790790.436
10 0 59346  21102.000000  0     244085.361    902396.769   6813757.899
10 0 59346  21222.000000  0    1159308.483    917889.109   6716998.257
10 0 59346  21342.000000  0    2054296.854    901523.314   6502201.343
10 0 59346  21462.000000  0    2912876.122    854077.299   6173118.887
10 0 59346  21582.000000  0    3719517.434    777147.948   5735503.781
10 0 59346  21702.000000  0    4459621.268    673110.719   5197014.370
10 0 59346  21822.000000  0    5119786.022    545060.437   4567086.926
10 0 59346  21942.000000  0    5688059.071    396734.436   3856776.701
10 0 59346  22062.000000  0    6154163.552    232420.866   3078566.641
10 0 59346  22182.000000  0    6509694.139     56853.355   2246147.431
10 0 59346  22302.000000  0    6748277.373   -124907.476   1374174.791
10 0 59346  22422.000000  0    6865694.517   -307600.417    478006.381
10 0 59346  22542.000000  0    6859961.177   -485895.239   -426576.279
10 0 59346  22662.000000  0    6731361.697   -654527.224  -1323655.384
10 0 59346  22782.000000  0    6482437.214   -808430.302  -2197465.526
10 0 59346  22902.000000  0    6117928.329   -942865.337  -3032678.030
10 0 59346  23022.000000  0    5644674.694  -1053540.587  -3814674.075
10 0 59346  23142.000000  0    5071474.522  -1136721.014  -4529801.541
10 0 59346  23262.000000  0    4408908.625  -1189323.646  -5165610.082
10 0 59346  23382.000000  0    3669134.429  -1208998.019  -5711061.650
10 0 59346  23502.000000  0    2865653.591  -1194190.228  -6156712.963
10 0 59346  23622.000000  0    2013060.075  -1144188.186  -6494867.608
10 0 59346  23742.000000  0    1126773.490  -1059147.626  -6719697.828
10 0 59346  23862.000000  0     222762.222   -940100.469  -6827334.791
10 0 59346  23982.000000  0    -682739.645   -788943.735  -6815927.828
10 0 59346  24102.000000  0   -1573516.779   -608409.933  -6685672.628
10 0 59346  24222.000000  0   -2433656.677   -402018.713  -6438808.252
10 0 59346  24342.000000  0   -3247827.201   -174011.025  -6079581.561
10 0 59346  24462.000000  0   -4001544.552     70733.506  -5614182.972
10 0 59346  24582.000000  0   -4681431.272    326795.228  -5050650.719
10 0 59346  24702.000000  0   -5275456.339    588326.821  -4398743.459
10 0 59346  24822.000000  0   -5773156.094    849178.730  -3669783.512
10 0 59346  24942.000000  0   -6165829.433   1103035.500  -2876469.104
10 0 59346  25062.000000  0   -6446702.337   1343559.297  -2032658.978
10 0 59346  25182.000000  0   -6611057.542   1564537.255  -1153132.649
10 0 59346  25302.000000  0   -6656326.375   1760030.397   -253329.413
10 0 59346  25422.000000  0   -6582136.963   1924518.081    650929.336
10 0 59346  25542.000000  0   -6390318.164   2053035.866   1543725.490
10 0 59346  25662.000000  0   -6084860.041   2141303.505   2409333.254
10 0 59346  25782.000000  0   -5671830.145   2185838.901   3232505.273
99
